[{"OBJECT_NAME":"DUCHIFAT-3","OBJECT_ID":"2019-089C","EPOCH":"2025-09-19T12:28:37.776288","MEAN_MOTION":15.57597779,"ECCENTRICITY":0.00063283,"INCLINATION":36.9374,"RA_OF_ASC_NODE":62.5404,"ARG_OF_PERICENTER":31.897,"MEAN_ANOMALY":328.2172,"EPHEMERIS_TYPE":0,"CLASSIFICATION_TYPE":"U","NORAD_CAT_ID":44854,"ELEMENT_SET_NO":999,"REV_AT_EPOCH":31885,"BSTAR":0.0010567101,"MEAN_MOTION_DOT":0.00081261,"MEAN_MOTION_DDOT":0},{"OBJECT_NAME":"TIANYAN 01","OBJECT_ID":"2019-093C","EPOCH":"2025-09-19T15:54:03.767904","MEAN_MOTION":14.85797599,"ECCENTRICITY":0.00123661,"INCLINATION":97.7849,"RA_OF_ASC_NODE":336.1501,"ARG_OF_PERICENTER":254.7708,"MEAN_ANOMALY":105.2141,"EPHEMERIS_TYPE":0,"CLASSIFICATION_TYPE":"U","NORAD_CAT_ID":44881,"ELEMENT_SET_NO":999,"REV_AT_EPOCH":31123,"BSTAR":0.00011126999,"MEAN_MOTION_DOT":9.15e-6,"MEAN_MOTION_DDOT":0},{"OBJECT_NAME":"RS-44 & BREEZE-KM R/B","OBJECT_ID":"2019-096E","EPOCH":"2025-09-19T10:10:20.361792","MEAN_MOTION":12.79743581,"ECCENTRICITY":0.0218468,"INCLINATION":82.5246,"RA_OF_ASC_NODE":159.6338,"ARG_OF_PERICENTER":57.5618,"MEAN_ANOMALY":304.6406,"EPHEMERIS_TYPE":0,"CLASSIFICATION_TYPE":"U","NORAD_CAT_ID":44909,"ELEMENT_SET_NO":999,"REV_AT_EPOCH":26771,"BSTAR":5.3164279e-5,"MEAN_MOTION_DOT":2.6e-7,"MEAN_MOTION_DDOT":0},{"OBJECT_NAME":"SALSAT","OBJECT_ID":"2020-068K","EPOCH":"2025-09-19T11:49:54.807744","MEAN_MOTION":15.24171121,"ECCENTRICITY":0.00117102,"INCLINATION":97.8707,"RA_OF_ASC_NODE":245.3864,"ARG_OF_PERICENTER":158.0993,"MEAN_ANOMALY":202.0746,"EPHEMERIS_TYPE":0,"CLASSIFICATION_TYPE":"U","NORAD_CAT_ID":46495,"ELEMENT_SET_NO":999,"REV_AT_EPOCH":27404,"BSTAR":0.00032048668,"MEAN_MOTION_DOT":7.74e-5,"MEAN_MOTION_DDOT":0},{"OBJECT_NAME":"LEDSAT","OBJECT_ID":"2021-073D","EPOCH":"2025-09-18T18:41:34.509696","MEAN_MOTION":15.83045169,"ECCENTRICITY":0.00015028,"INCLINATION":97.3769,"RA_OF_ASC_NODE":348.7647,"ARG_OF_PERICENTER":53.075,"MEAN_ANOMALY":307.0657,"EPHEMERIS_TYPE":0,"CLASSIFICATION_TYPE":"U","NORAD_CAT_ID":49069,"ELEMENT_SET_NO":999,"REV_AT_EPOCH":22730,"BSTAR":0.00111233,"MEAN_MOTION_DOT":0.00242667,"MEAN_MOTION_DDOT":0},{"OBJECT_NAME":"XW-3 (CAS-9)","OBJECT_ID":"2021-131B","EPOCH":"2025-09-19T15:12:12.894912","MEAN_MOTION":14.4092763,"ECCENTRICITY":0.00042936,"INCLINATION":98.5083,"RA_OF_ASC_NODE":351.4812,"ARG_OF_PERICENTER":175.2709,"MEAN_ANOMALY":184.8521,"EPHEMERIS_TYPE":0,"CLASSIFICATION_TYPE":"U","NORAD_CAT_ID":50466,"ELEMENT_SET_NO":999,"REV_AT_EPOCH":19614,"BSTAR":0.00016678502,"MEAN_MOTION_DOT":4.91e-6,"MEAN_MOTION_DDOT":0},{"OBJECT_NAME":"GREENCUBE (IO-117)","OBJECT_ID":"2022-080E","EPOCH":"2025-09-19T09:02:45.368736","MEAN_MOTION":6.42583624,"ECCENTRICITY":0.00085676,"INCLINATION":70.1547,"RA_OF_ASC_NODE":32.4043,"ARG_OF_PERICENTER":347.3364,"MEAN_ANOMALY":12.708,"EPHEMERIS_TYPE":0,"CLASSIFICATION_TYPE":"U","NORAD_CAT_ID":53109,"ELEMENT_SET_NO":999,"REV_AT_EPOCH":7466,"BSTAR":0,"MEAN_MOTION_DOT":-3.0e-8,"MEAN_MOTION_DDOT":0},{"OBJECT_NAME":"STRATOSAT-TK 1 (RS52S)","OBJECT_ID":"2023-091B","EPOCH":"2025-09-19T12:30:42.382368","MEAN_MOTION":15.49217932,"ECCENTRICITY":0.00055014,"INCLINATION":97.5414,"RA_OF_ASC_NODE":329.8547,"ARG_OF_PERICENTER":289.3928,"MEAN_ANOMALY":70.6728,"EPHEMERIS_TYPE":0,"CLASSIFICATION_TYPE":"U","NORAD_CAT_ID":57167,"ELEMENT_SET_NO":999,"REV_AT_EPOCH":12374,"BSTAR":0.0010884301,"MEAN_MOTION_DOT":0.00059645,"MEAN_MOTION_DDOT":0},{"OBJECT_NAME":"UMKA 1 (RS40S)","OBJECT_ID":"2023-091G","EPOCH":"2025-09-19T14:15:01.320192","MEAN_MOTION":15.16475394,"ECCENTRICITY":0.00133616,"INCLINATION":97.5483,"RA_OF_ASC_NODE":317.46,"ARG_OF_PERICENTER":347.905,"MEAN_ANOMALY":12.186,"EPHEMERIS_TYPE":0,"CLASSIFICATION_TYPE":"U","NORAD_CAT_ID":57172,"ELEMENT_SET_NO":999,"REV_AT_EPOCH":12293,"BSTAR":0.00027169921,"MEAN_MOTION_DOT":5.232e-5,"MEAN_MOTION_DDOT":0},{"OBJECT_NAME":"CUBESX-HSE 3 (RS42S)","OBJECT_ID":"2023-091N","EPOCH":"2025-09-19T14:01:06.849120","MEAN_MOTION":15.22687454,"ECCENTRICITY":0.00118059,"INCLINATION":97.5514,"RA_OF_ASC_NODE":320.7494,"ARG_OF_PERICENTER":331.7578,"MEAN_ANOMALY":28.3016,"EPHEMERIS_TYPE":0,"CLASSIFICATION_TYPE":"U","NORAD_CAT_ID":57178,"ELEMENT_SET_NO":999,"REV_AT_EPOCH":12312,"BSTAR":0.00044705254,"MEAN_MOTION_DOT":0.00010368,"MEAN_MOTION_DDOT":0},{"OBJECT_NAME":"MONITOR-3 (RS58S)","OBJECT_ID":"2023-091Q","EPOCH":"2025-09-19T14:21:10.973088","MEAN_MOTION":15.2077245,"ECCENTRICITY":0.00126056,"INCLINATION":97.5509,"RA_OF_ASC_NODE":319.7462,"ARG_OF_PERICENTER":335.4718,"MEAN_ANOMALY":24.5916,"EPHEMERIS_TYPE":0,"CLASSIFICATION_TYPE":"U","NORAD_CAT_ID":57180,"ELEMENT_SET_NO":999,"REV_AT_EPOCH":12306,"BSTAR":0.0003771734,"MEAN_MOTION_DOT":8.257e-5,"MEAN_MOTION_DDOT":0},{"OBJECT_NAME":"MONITOR-4 (RS57S)","OBJECT_ID":"2023-091S","EPOCH":"2025-09-19T14:11:01.016736","MEAN_MOTION":15.20828756,"ECCENTRICITY":0.00126377,"INCLINATION":97.5504,"RA_OF_ASC_NODE":319.698,"ARG_OF_PERICENTER":336.0619,"MEAN_ANOMALY":24.0027,"EPHEMERIS_TYPE":0,"CLASSIFICATION_TYPE":"U","NORAD_CAT_ID":57182,"ELEMENT_SET_NO":999,"REV_AT_EPOCH":12306,"BSTAR":0.00039410737,"MEAN_MOTION_DOT":8.646e-5,"MEAN_MOTION_DDOT":0},{"OBJECT_NAME":"MONITOR-2 (RS39S)","OBJECT_ID":"2023-091U","EPOCH":"2025-09-19T14:23:12.458400","MEAN_MOTION":15.15321,"ECCENTRICITY":0.00112949,"INCLINATION":97.5511,"RA_OF_ASC_NODE":317.6117,"ARG_OF_PERICENTER":339.3813,"MEAN_ANOMALY":20.6961,"EPHEMERIS_TYPE":0,"CLASSIFICATION_TYPE":"U","NORAD_CAT_ID":57184,"ELEMENT_SET_NO":999,"REV_AT_EPOCH":12292,"BSTAR":0.00021128323,"MEAN_MOTION_DOT":3.919e-5,"MEAN_MOTION_DDOT":0},{"OBJECT_NAME":"SVYATOBOR 1 (RS60S)","OBJECT_ID":"2023-091X","EPOCH":"2025-09-19T13:57:09.842688","MEAN_MOTION":15.20451296,"ECCENTRICITY":0.0009605,"INCLINATION":97.5514,"RA_OF_ASC_NODE":320.4068,"ARG_OF_PERICENTER":327.7678,"MEAN_ANOMALY":32.2969,"EPHEMERIS_TYPE":0,"CLASSIFICATION_TYPE":"U","NORAD_CAT_ID":57187,"ELEMENT_SET_NO":999,"REV_AT_EPOCH":12310,"BSTAR":0.00037592788,"MEAN_MOTION_DOT":8.145e-5,"MEAN_MOTION_DDOT":0},{"OBJECT_NAME":"VIZARD-METEO (RS38S)","OBJECT_ID":"2023-091Z","EPOCH":"2025-09-19T14:18:17.227008","MEAN_MOTION":15.25751815,"ECCENTRICITY":0.00077083,"INCLINATION":97.5503,"RA_OF_ASC_NODE":323.0565,"ARG_OF_PERICENTER":316.3557,"MEAN_ANOMALY":43.7071,"EPHEMERIS_TYPE":0,"CLASSIFICATION_TYPE":"U","NORAD_CAT_ID":57189,"ELEMENT_SET_NO":999,"REV_AT_EPOCH":12328,"BSTAR":0.00046501002,"MEAN_MOTION_DOT":0.0001181,"MEAN_MOTION_DDOT":0},{"OBJECT_NAME":"NANOZOND 1 (RS49S)","OBJECT_ID":"2023-091AA","EPOCH":"2025-09-19T12:34:18.340896","MEAN_MOTION":15.41420211,"ECCENTRICITY":0.00043653,"INCLINATION":97.5452,"RA_OF_ASC_NODE":328.9816,"ARG_OF_PERICENTER":290.0224,"MEAN_ANOMALY":70.0552,"EPHEMERIS_TYPE":0,"CLASSIFICATION_TYPE":"U","NORAD_CAT_ID":57190,"ELEMENT_SET_NO":999,"REV_AT_EPOCH":12368,"BSTAR":0.00078937139,"MEAN_MOTION_DOT":0.00033025,"MEAN_MOTION_DDOT":0}]
