DUCHIFAT-3              
1 44854U 19089C   25262.51988167  .00081261  00000+0  10567-2 0  9992
2 44854  36.9374  62.5404 0006328  31.8970 328.2172 15.57597779318859
TIANYAN 01              
1 44881U 19093C   25262.66254361  .00000915  00000+0  11127-3 0  9996
2 44881  97.7849 336.1501 0012366 254.7708 105.2141 14.85797599311239
RS-44 & BREEZE-KM R/B   
1 44909U 19096E   25262.42384678  .00000026  00000+0  53164-4 0  9990
2 44909  82.5246 159.6338 0218468  57.5618 304.6406 12.79743581267714
SALSAT                  
1 46495U 20068K   25262.49299546  .00007740  00000+0  32049-3 0  9997
2 46495  97.8707 245.3864 0011710 158.0993 202.0746 15.24171121274048
LEDSAT                  
1 49069U 21073D   25261.77887164  .00242667  00000+0  11123-2 0  9991
2 49069  97.3769 348.7647 0001502  53.0750 307.0657 15.83045169227302
XW-3 (CAS-9)            
1 50466U 21131B   25262.63348258  .00000491  00000+0  16679-3 0  9990
2 50466  98.5083 351.4812 0004293 175.2709 184.8521 14.40927630196145
GREENCUBE (IO-117)      
1 53109U 22080E   25262.37691399 -.00000003  00000+0  00000+0 0  9996
2 53109  70.1547  32.4043 0008567 347.3364  12.7080  6.42583624 74667
STRATOSAT-TK 1 (RS52S)  
1 57167U 23091B   25262.52132387  .00059645  00000+0  10884-2 0  9990
2 57167  97.5414 329.8547 0005501 289.3928  70.6728 15.49217932123748
UMKA 1 (RS40S)          
1 57172U 23091G   25262.59376528  .00005232  00000+0  27170-3 0  9990
2 57172  97.5483 317.4600 0013361 347.9050  12.1860 15.16475394122933
CUBESX-HSE 3 (RS42S)    
1 57178U 23091N   25262.58410705  .00010368  00000+0  44705-3 0  9990
2 57178  97.5514 320.7494 0011805 331.7578  28.3016 15.22687454123122
MONITOR-3 (RS58S)       
1 57180U 23091Q   25262.59804367  .00008257  00000+0  37717-3 0  9994
2 57180  97.5509 319.7462 0012605 335.4718  24.5916 15.20772450123067
MONITOR-4 (RS57S)       
1 57182U 23091S   25262.59098399  .00008646  00000+0  39411-3 0  9991
2 57182  97.5504 319.6980 0012637 336.0619  24.0027 15.20828756123069
MONITOR-2 (RS39S)       
1 57184U 23091U   25262.59944975  .00003919  00000+0  21128-3 0  9997
2 57184  97.5511 317.6117 0011294 339.3813  20.6961 15.15321000122926
SVYATOBOR 1 (RS60S)     
1 57187U 23091X   25262.58136392  .00008145  00000+0  37593-3 0  9994
2 57187  97.5514 320.4068 0009605 327.7678  32.2969 15.20451296123107
VIZARD-METEO (RS38S)    
1 57189U 23091Z   25262.59603272  .00011810  00000+0  46501-3 0  9995
2 57189  97.5503 323.0565 0007708 316.3557  43.7071 15.25751815123285
NANOZOND 1 (RS49S)      
1 57190U 23091AA  25262.52382339  .00033025  00000+0  78937-3 0  9998
2 57190  97.5452 328.9816 0004365 290.0224  70.0552 15.41420211123680
